NORAD_CAT_ID,OBJECT_NAME,OBJECT_TYPE,EPOCH,MEAN_MOTION,ECCENTRICITY,INCLINATION,RA_OF_ASC_NODE,ARG_OF_PERICENTER,MEAN_ANOMALY,BSTAR,MEAN_MOTION_DOT,MEAN_MOTION_DDOT,TLE_LINE0,TLE_LINE1,TLE_LINE2,SEMIMAJOR_AXIS,PERIOD,APOGEE,PERIGEE,DECAYED
52670.0,STARLINK-4075,PAYLOAD,2024-08-02 19:53:59,15.08848361,0.0001388,53.2157,255.2405,84.6327,275.4824,0.00010465,1.378e-05,0.0,0 STARLINK-4075,1 52670U 22053Q   24215.82915684  .00001378  00000-0  10465-3 0  9997,2 52670  53.2157 255.2405 0001388  84.6327 275.4824 15.08848361122470,6917.855,95.437,540.68,538.76,0.0
52670.0,STARLINK-4075,PAYLOAD,2024-08-03 10:12:27,15.08844413,0.000133,53.2158,252.5641,93.6965,266.4179,-1.7643e-05,-5.69e-06,0.0,0 STARLINK-4075,1 52670U 22053Q   24216.42532246 -.00000569  00000-0 -17643-4 0  9992,2 52670  53.2158 252.5641 0001330  93.6965 266.4179 15.08844413122565,6917.867,95.437,540.652,538.812,0.0
52670.0,STARLINK-4075,PAYLOAD,2024-08-03 19:44:46,15.08841484,0.0001361,53.216,250.7802,91.6507,268.4641,1.7954e-05,-2e-08,0.0,0 STARLINK-4075,1 52670U 22053Q   24216.82276293 -.00000002  00000-0  17954-4 0  9999,2 52670  53.2160 250.7802 0001361  91.6507 268.4641 15.08841484123057,6917.876,95.437,540.682,538.799,0.0
52670.0,STARLINK-4075,PAYLOAD,2024-08-04 11:38:37,15.08852618,0.0001306,53.2153,247.8076,95.8582,264.2559,5.4064e-05,5.73e-06,0.0,0 STARLINK-4075,1 52670U 22053Q   24217.48515464  .00000573  00000-0  54064-4 0  9993,2 52670  53.2153 247.8076 0001306  95.8582 264.2559 15.08852618122723,6917.842,95.437,540.61,538.803,0.0
52670.0,STARLINK-4075,PAYLOAD,2024-08-04 19:35:33,15.08846996,0.000131,53.2138,246.3202,92.4163,267.6979,0.00010842,1.438e-05,0.0,0 STARLINK-4075,1 52670U 22053Q   24217.81635813  .00001438  00000-0  10842-3 0  9997,2 52670  53.2138 246.3202 0001310  92.4163 267.6979 15.08846996122774,6917.859,95.437,540.63,538.818,0.0
52670.0,STARLINK-4075,PAYLOAD,2024-08-05 05:07:52,15.08835259,0.0001382,53.2146,244.5341,97.5511,262.5638,0.00023526,3.458e-05,0.0,0 STARLINK-4075,1 52670U 22053Q   24218.21380533  .00003458  00000-0  23526-3 0  9995,2 52670  53.2146 244.5341 0001382  97.5511 262.5638 15.08835259122832,6917.895,95.438,540.716,538.804,0.0
52670.0,STARLINK-4075,PAYLOAD,2024-08-05 08:18:38,15.08842003,0.0001456,53.2146,243.94,95.0988,265.017,0.00014228,1.977e-05,0.0,0 STARLINK-4075,1 52670U 22053Q   24218.34628173  .00001977  00000-0  14228-3 0  9997,2 52670  53.2146 243.9400 0001456  95.0988 265.0170 15.08842003123288,6917.874,95.437,540.747,538.732,0.0
52670.0,STARLINK-4075,PAYLOAD,2024-08-06 04:58:40,15.0883105,0.0001649,53.2154,240.0719,102.0015,258.1162,-5.478e-05,-1.16e-05,0.0,0 STARLINK-4075,1 52670U 22053Q   24219.20740994 -.00001160  00000-0 -54780-4 0  9993,2 52670  53.2154 240.0719 0001649 102.0015 258.1162 15.08831050122982,6917.908,95.438,540.914,538.632,0.0
52670.0,STARLINK-4075,PAYLOAD,2024-08-06 11:20:13,15.08832645,0.0001585,53.2166,238.8841,100.0766,260.0405,-9.1506e-05,-1.744e-05,0.0,0 STARLINK-4075,1 52670U 22053Q   24219.47237434 -.00001744  00000-0 -91506-4 0  9997,2 52670  53.2166 238.8841 0001585 100.0766 260.0405 15.08832645123452,6917.903,95.438,540.864,538.671,0.0
52670.0,STARLINK-4075,PAYLOAD,2024-08-07 11:10:59,15.08839341,0.00016,53.2163,234.4252,100.2992,259.818,7.4007e-05,8.9e-06,0.0,0 STARLINK-4075,1 52670U 22053Q   24220.46596861  .00000890  00000-0  74007-4 0  9996,2 52670  53.2163 234.4252 0001600 100.2992 259.8180 15.08839341123173,6917.882,95.438,540.854,538.641,0.0
52670.0,STARLINK-4075,PAYLOAD,2024-08-08 11:01:46,15.08839164,0.0001488,53.2154,229.9644,100.0901,260.0259,0.00015919,2.246e-05,0.0,0 STARLINK-4075,1 52670U 22053Q   24221.45957044  .00002246  00000-0  15919-3 0  9993,2 52670  53.2154 229.9644 0001488 100.0901 260.0259 15.08839164123757,6917.883,95.438,540.777,538.719,0.0
52670.0,STARLINK-4075,PAYLOAD,2024-08-09 04:31:01,15.08842507,0.00016,53.2157,226.6925,107.5356,252.5811,6.7947e-05,7.94e-06,0.0,0 STARLINK-4075,1 52670U 22053Q   24222.18821135  .00000794  00000-0  67947-4 0  9990,2 52670  53.2157 226.6925 0001600 107.5356 252.5811 15.08842507123438,6917.873,95.437,540.845,538.631,0.0
52670.0,STARLINK-4075,PAYLOAD,2024-08-09 09:17:10,15.08846126,0.0001553,53.2157,225.8002,104.3053,255.8112,9.4477e-05,1.216e-05,0.0,0 STARLINK-4075,1 52670U 22053Q   24222.38692808  .00001216  00000-0  94477-4 0  9993,2 52670  53.2157 225.8002 0001553 104.3053 255.8112 15.08846126123892,6917.862,95.437,540.801,538.652,0.0
52670.0,STARLINK-4075,PAYLOAD,2024-08-09 17:14:06,15.08842119,0.0001535,53.2159,224.3131,83.4096,276.707,5.2726e-05,5.51e-06,0.0,0 STARLINK-4075,1 52670U 22053Q   24222.71813252  .00000551  00000-0  52726-4 0  9990,2 52670  53.2159 224.3131 0001535  83.4096 276.7070 15.08842119123944,6917.874,95.437,540.801,538.677,0.0
52670.0,STARLINK-4075,PAYLOAD,2024-08-10 04:21:49,15.08834052,0.0001782,53.2171,222.2326,83.9184,276.2011,2.3735e-05,9e-07,0.0,0 STARLINK-4075,1 52670U 22053Q   24223.18181922  .00000090  00000-0  23735-4 0  9990,2 52670  53.2171 222.2326 0001782  83.9184 276.2011 15.08834052123585,6917.899,95.438,540.996,538.531,0.0
52670.0,STARLINK-4075,PAYLOAD,2024-08-11 08:58:44,15.08855483,0.0001499,53.2163,216.8812,87.7033,272.4131,0.00014191,1.972e-05,0.0,0 STARLINK-4075,1 52670U 22053Q   24224.37412126  .00001972  00000-0  14191-3 0  9990,2 52670  53.2163 216.8812 0001499  87.7033 272.4131 15.08855483123767,6917.833,95.437,540.735,538.661,0.0
52670.0,STARLINK-4075,PAYLOAD,2024-08-11 16:55:40,15.08841788,0.0001515,53.2166,215.3877,89.6492,270.4674,4.2521e-05,3.89e-06,0.0,0 STARLINK-4075,1 52670U 22053Q   24224.70532906  .00000389  00000-0  42521-4 0  9996,2 52670  53.2166 215.3877 0001515  89.6492 270.4674 15.08841788123813,6917.875,95.437,540.788,538.692,0.0
52670.0,STARLINK-4075,PAYLOAD,2024-08-12 10:24:53,15.08859882,0.0001387,53.2165,212.1192,102.7536,257.3612,0.00020736,3.015e-05,0.0,0 STARLINK-4075,1 52670U 22053Q   24225.43395494  .00003015  00000-0  20736-3 0  9998,2 52670  53.2165 212.1192 0001387 102.7536 257.3612 15.08859882123922,6917.82,95.436,540.644,538.725,0.0
52670.0,STARLINK-4075,PAYLOAD,2024-08-12 16:46:27,15.08844175,0.0001394,53.216,210.9281,119.2294,240.8838,7.0414e-05,8.33e-06,0.0,0 STARLINK-4075,1 52670U 22053Q   24225.69892583  .00000833  00000-0  70414-4 0  9991,2 52670  53.2160 210.9281 0001394 119.2294 240.8838 15.08844175123964,6917.868,95.437,540.697,538.768,0.0
52670.0,STARLINK-4075,PAYLOAD,2024-08-12 23:07:59,15.08851775,0.0001327,53.2155,209.7425,99.6484,260.4658,3.7445e-05,3.08e-06,0.0,0 STARLINK-4075,1 52670U 22053Q   24225.96388323  .00000308  00000-0  37445-4 0  9997,2 52670  53.2155 209.7425 0001327  99.6484 260.4658 15.08851775124437,6917.844,95.437,540.627,538.791,0.0
52670.0,STARLINK-4075,PAYLOAD,2024-08-13 05:29:31,15.08854523,0.0001426,53.2149,208.5535,96.7791,263.3363,7.1752e-05,8.55e-06,0.0,0 STARLINK-4075,1 52670U 22053Q   24226.22883940  .00000855  00000-0  71752-4 0  9998,2 52670  53.2149 208.5535 0001426  96.7791 263.3363 15.08854523124044,6917.836,95.437,540.687,538.715,0.0
52670.0,STARLINK-4075,PAYLOAD,2024-08-13 08:40:17,15.08856214,0.0001482,53.2147,207.9583,98.6916,261.4244,0.00010664,1.41e-05,0.0,0 STARLINK-4075,1 52670U 22053Q   24226.36131741  .00001410  00000-0  10664-3 0  9990,2 52670  53.2147 207.9583 0001482  98.6916 261.4244 15.08856214124495,6917.831,95.437,540.721,538.671,0.0
52670.0,STARLINK-4075,PAYLOAD,2024-08-14 05:20:20,15.08824512,0.0001343,53.2151,204.0926,92.9547,267.1599,-0.00020025,-3.472e-05,0.0,0 STARLINK-4075,1 52670U 22053Q   24227.22245667 -.00003472  00000-0 -20025-3 0  9993,2 52670  53.2151 204.0926 0001343  92.9547 267.1599 15.08824512124191,6917.928,95.439,540.722,538.864,0.0
52670.0,STARLINK-4075,PAYLOAD,2024-08-14 08:31:06,15.08824177,0.0001207,53.2151,203.4984,97.7485,262.3645,-0.00024479,-4.18e-05,0.0,0 STARLINK-4075,1 52670U 22053Q   24227.35493742 -.00004180  00000-0 -24479-3 0  9990,2 52670  53.2151 203.4984 0001207  97.7485 262.3645 15.08824177124647,6917.929,95.439,540.629,538.959,0.0
52670.0,STARLINK-4075,PAYLOAD,2024-08-15 05:11:07,15.0883359,0.0001173,53.2148,199.6336,99.242,260.8705,0.00018299,2.625e-05,0.0,0 STARLINK-4075,1 52670U 22053Q   24228.21606257  .00002625  00000-0  18299-3 0  9996,2 52670  53.2148 199.6336 0001173  99.2420 260.8705 15.08833590124344,6917.9,95.438,540.576,538.954,0.0
52670.0,STARLINK-4075,PAYLOAD,2024-08-15 14:43:26,15.08839134,0.0001135,53.2148,197.8495,99.6671,260.4449,0.00030793,4.616e-05,0.0,0 STARLINK-4075,1 52670U 22053Q   24228.61350304  .00004616  00000-0  30793-3 0  9994,2 52670  53.2148 197.8495 0001135  99.6671 260.4449 15.08839134124835,6917.883,95.438,540.533,538.963,0.0
52670.0,STARLINK-4075,PAYLOAD,2024-08-16 05:01:54,15.08852563,0.0001113,53.2146,195.1735,101.5782,258.5335,0.00053832,8.293e-05,0.0,0 STARLINK-4075,1 52670U 22053Q   24229.20966067  .00008293  00000-0  53832-3 0  9993,2 52670  53.2146 195.1735 0001113 101.5782 258.5335 15.08852563124498,6917.842,95.437,540.477,538.937,0.0
52670.0,STARLINK-4075,PAYLOAD,2024-08-17 04:52:41,15.0884344,0.0001092,53.2138,190.714,109.1607,250.9503,7.2882e-05,8.72e-06,0.0,0 STARLINK-4075,1 52670U 22053Q   24230.20325994  .00000872  00000-0  72882-4 0  9995,2 52670  53.2138 190.7140 0001092 109.1607 250.9503 15.08843440124640,6917.87,95.437,540.49,538.979,0.0
52670.0,STARLINK-4075,PAYLOAD,2024-08-18 04:43:28,15.08846794,0.000126,53.2151,186.2536,105.941,254.1721,6.9084e-05,8.12e-06,0.0,0 STARLINK-4075,1 52670U 22053Q   24231.19685861  .00000812  00000-0  69084-4 0  9990,2 52670  53.2151 186.2536 0001260 105.9410 254.1721 15.08846794125225,6917.86,95.437,540.596,538.853,0.0
52670.0,STARLINK-4075,PAYLOAD,2024-08-18 06:18:52,15.08835615,0.0001422,53.2151,185.9581,113.6105,246.5037,0.00052616,8.095e-05,0.0,0 STARLINK-4075,1 52670U 22053Q   24231.26310479  .00008095  00000-0  52616-3 0  9991,2 52670  53.2151 185.9581 0001422 113.6105 246.5037 15.08835615124806,6917.894,95.438,540.743,538.775,0.0
